{"1":{"stop":"1","name_en":"Mui Wo Ferry Pier","name_tc":"梅窩碼頭","lat":"22.26466400","long":"114.00155400","location_en":"Mui Wo Ferry Pier","location_tc":"梅窩碼頭"},"2":{"stop":"2","name_en":"Mui Wo Cooked Food Market","name_tc":"梅窩熟食市場","lat":"22.26614300","long":"114.00004900","location_en":"Ngan Kwong Wan Road","location_tc":"銀礦灣道"},"3":{"stop":"3","name_en":"Ngan Wan Estate","name_tc":"銀灣邨","lat":"22.26540600","long":"113.99707400","location_en":"Ngan Kwong Wan Road","location_tc":"銀礦灣道"},"4":{"stop":"4","name_en":"Mui Wo Market","name_tc":"梅窩街市","lat":"22.26675900","long":"113.99699900","location_en":"Ngan Shek Street","location_tc":"銀石街"},"5":{"stop":"5","name_en":"Ngan King Centre","name_tc":"銀景中心","lat":"22.26553700","long":"113.99696500","location_en":"Ngan Kwong Wan Road","location_tc":"銀礦灣道"},"6":{"stop":"6","name_en":"Silver Mine Bay Water Treatment Works","name_tc":"銀鑛灣濾水廠","lat":"22.26296600","long":"113.99782600","location_en":"South Lantau Road","location_tc":"嶼南道"},"7":{"stop":"7","name_en":"Lai Chi Yuen","name_tc":"荔枝園","lat":"22.26075800","long":"113.99647700","location_en":"South Lantau Road","location_tc":"嶼南道"},"8":{"stop":"8","name_en":"Nam Shan Sam Uk Tsuen","name_tc":"南山三屋村","lat":"22.25707200","long":"113.99010800","location_en":"South Lantau Road","location_tc":"嶼南道"},"9":{"stop":"9","name_en":"Nam Shan Camp Site","name_tc":"南山營地","lat":"22.25545100","long":"113.98681100","location_en":"South Lantau Road","location_tc":"嶼南道"},"10":{"stop":"10","name_en":"Swire Staff Holiday House","name_tc":"太古職員宿舍","lat":"22.25191800","long":"113.98488700","location_en":"South Lantau Road","location_tc":"嶼南道"},"11":{"stop":"11","name_en":"Pui O Petrol Station","name_tc":"貝澳油站","lat":"22.24731100","long":"113.98098500","location_en":"South Lantau Road","location_tc":"嶼南道"},"12":{"stop":"12","name_en":"Lo Wai Tsuen","name_tc":"老圍村","lat":"22.24425200","long":"113.97923600","location_en":"South Lantau Road","location_tc":"嶼南道"},"13":{"stop":"13","name_en":"Sun Wai Tsuen","name_tc":"新圍村","lat":"22.24347600","long":"113.97817800","location_en":"South Lantau Road","location_tc":"嶼南道"},"14":{"stop":"14","name_en":"Lo Uk Tsuen","name_tc":"羅屋村","lat":"22.24319200","long":"113.97488500","location_en":"South Lantau Road","location_tc":"嶼南道"},"15":{"stop":"15","name_en":"Ngau Au Yuen","name_tc":"牛坳園","lat":"22.24304100","long":"113.97254500","location_en":"South Lantau Road","location_tc":"嶼南道"},"16":{"stop":"16","name_en":"San Shek Wan 3 1/4 Milestone","name_tc":"散石灣中蘆","lat":"22.24124400","long":"113.96910500","location_en":"South Lantau Road","location_tc":"嶼南道"},"17":{"stop":"17","name_en":"San Shek Wan Village","name_tc":"散石灣村","lat":"22.23892800","long":"113.96677200","location_en":"South Lantau Road","location_tc":"嶼南道"},"18":{"stop":"18","name_en":"YWCA Sydney Leong Holiday Lodge","name_tc":"女青年會梁紹榮度假村","lat":"22.23748400","long":"113.96400100","location_en":"South Lantau Road","location_tc":"嶼南道"},"179":{"stop":"179","name_en":"Tung Chung Road","name_tc":"東涌道","lat":"22.23791800","long":"113.96292000","location_en":"South Lantau Road","location_tc":"嶼南道"},"64":{"stop":"64","name_en":"Cheung Sha Catchwater","name_tc":"長沙引水道","lat":"22.23981400","long":"113.95721600","location_en":"Tung Chung Road","location_tc":"東涌道"},"65":{"stop":"65","name_en":"Pak Kung Au","name_tc":"伯公坳","lat":"22.24805400","long":"113.94313900","location_en":"Tung Chung Road","location_tc":"東涌道"},"66":{"stop":"66","name_en":"Tung Chung Au Management Centre","name_tc":"東涌坳管理站","lat":"22.26400600","long":"113.93715500","location_en":"Tung Chung Road","location_tc":"東涌道"},"67":{"stop":"67","name_en":"Cemetery Area No. 18","name_tc":"十八區墳場","lat":"22.26546600","long":"113.93646300","location_en":"Tung Chung Road","location_tc":"東涌道"},"68":{"stop":"68","name_en":"Shek Mun Kap Road","name_tc":"石門甲道","lat":"22.26991800","long":"113.93424300","location_en":"Tung Chung Road","location_tc":"東涌道"},"69":{"stop":"69","name_en":"Lung Tseng Tau","name_tc":"龍井頭","lat":"22.27597500","long":"113.93337700","location_en":"Tung Chung Road","location_tc":"東涌道"},"70":{"stop":"70","name_en":"Wong Ka Wai","name_tc":"黃家圍","lat":"22.27716200","long":"113.93381200","location_en":"Tung Chung Road","location_tc":"東涌道"},"71":{"stop":"71","name_en":"Ha Ling Pei","name_tc":"下嶺皮","lat":"22.27873100","long":"113.93547500","location_en":"Tung Chung Road","location_tc":"東涌道"},"72":{"stop":"72","name_en":"Sheung Ling Pei","name_tc":"上嶺皮","lat":"22.27891200","long":"113.93685600","location_en":"Tung Chung Road","location_tc":"東涌道"},"73":{"stop":"73","name_en":"Tung Chung Rural Committee Office","name_tc":"東涌鄉事委員會","lat":"22.27913800","long":"113.93929900","location_en":"Tung Chung Road","location_tc":"東涌道"},"74":{"stop":"74","name_en":"Ma Wan Sun Tsuen","name_tc":"馬灣新村","lat":"22.27986500","long":"113.94024300","location_en":"Chung Yan Road","location_tc":"松仁路"},"185":{"stop":"185","name_en":"North Lantau Hospital (North Bound), Mei Yat House Yat Tung Estate","name_tc":"北大嶼山醫院(北行), 逸東邨美逸樓","lat":"22.28129500","long":"113.93882200","location_en":"Chung Yan Road","location_tc":"松仁路"},"76":{"stop":"76","name_en":"North Lantau Hospital (South Bound)","name_tc":"北大嶼山醫院(南行)","lat":"22.28186100","long":"113.93880300","location_en":"Chung Yan Road","location_tc":"松仁路"},"77":{"stop":"77","name_en":"Tung Chung Fire Station","name_tc":"東涌消防局","lat":"22.28603000","long":"113.94105700","location_en":"Shun Tung Road","location_tc":"順東路"},"78":{"stop":"78","name_en":"Tung Chung Cable Car Terminal","name_tc":"東涌纜車站","lat":"22.28930100","long":"113.93873300","location_en":"Tat Tung Road","location_tc":"達東路"},"79":{"stop":"79","name_en":"Tung Chung Station Bus Terminus","name_tc":"東涌站巴士總站","lat":"22.28986200","long":"113.93961600","location_en":"Tat Tung Road","location_tc":"達東路"},"278":{"stop":"278","name_en":"Tung Chung Station Bus Terminus","name_tc":"東涌站巴士總站","lat":"22.28986200","long":"113.93961600","location_en":"Tat Tung Road","location_tc":"達東路"},"80":{"stop":"80","name_en":"Fu Tung Plaza","name_tc":"富東廣場","lat":"22.28887000","long":"113.94210500","location_en":"Tat Tung Road","location_tc":"達東路"},"81":{"stop":"81","name_en":"Yu Tung Court","name_tc":"裕東苑","lat":"22.28607700","long":"113.94160300","location_en":"Shun Tung Road","location_tc":"順東路"},"338":{"stop":"338","name_en":"Yu Tai Court (Chung Yan Road)","name_tc":"裕泰苑(松仁路)","lat":"22.28019400","long":"113.94030600","location_en":"Chung Yan Road","location_tc":"松仁路"},"94":{"stop":"94","name_en":"Tung Chung Rural Committee Office","name_tc":"東涌鄉事委員會","lat":"22.27893600","long":"113.93879500","location_en":"Tung Chung Road","location_tc":"東涌道"},"279":{"stop":"279","name_en":"Sheung Ling Pei","name_tc":"上嶺皮","lat":"22.27879200","long":"113.93714800","location_en":"Tung Chung Road","location_tc":"東涌道"},"280":{"stop":"280","name_en":"Ha Ling Pei","name_tc":"下嶺皮","lat":"22.27851200","long":"113.93542300","location_en":"Tung Chung Road","location_tc":"東涌道"},"282":{"stop":"282","name_en":"Wong Ka Wai","name_tc":"黃家圍","lat":"22.27703800","long":"113.93397500","location_en":"Tung Chung Road","location_tc":"東涌道"},"283":{"stop":"283","name_en":"Lung Tseng Tau","name_tc":"龍井頭","lat":"22.27570700","long":"113.93370700","location_en":"Tung Chung Road","location_tc":"東涌道"},"284":{"stop":"284","name_en":"Shek Mun Kap Road","name_tc":"石門甲道","lat":"22.27047000","long":"113.93446500","location_en":"Tung Chung Road","location_tc":"東涌道"},"286":{"stop":"286","name_en":"Cemetery Area No. 18","name_tc":"十八區墳場","lat":"22.26567800","long":"113.93674000","location_en":"Tung Chung Road","location_tc":"東涌道"},"287":{"stop":"287","name_en":"Tung Chung Au Management Centre","name_tc":"東涌坳管理站","lat":"22.26410400","long":"113.93755200","location_en":"Tung Chung Road","location_tc":"東涌道"},"288":{"stop":"288","name_en":"Pak Kung Au","name_tc":"伯公坳","lat":"22.24893900","long":"113.94259700","location_en":"Tung Chung Road","location_tc":"東涌道"},"273":{"stop":"273","name_en":"Cheung Sha Catchwater","name_tc":"長沙引水道","lat":"22.24000700","long":"113.95733900","location_en":"Tung Chung Road","location_tc":"東涌道"},"256":{"stop":"256","name_en":"YWCA Sydney Leong Holiday Lodge","name_tc":"女青年會梁紹榮度假村","lat":"22.23776800","long":"113.96397300","location_en":"South Lantau Road","location_tc":"嶼南道"},"257":{"stop":"257","name_en":"San Shek Wan Village","name_tc":"散石灣村","lat":"22.23902400","long":"113.96652600","location_en":"South Lantau Road","location_tc":"嶼南道"},"258":{"stop":"258","name_en":"San Shek Wan 3 1/4 Milestone","name_tc":"散石灣中蘆","lat":"22.24125500","long":"113.96866600","location_en":"South Lantau Road","location_tc":"嶼南道"},"259":{"stop":"259","name_en":"Lo Uk Tsuen","name_tc":"羅屋村","lat":"22.24337500","long":"113.97483200","location_en":"South Lantau Road","location_tc":"嶼南道"},"260":{"stop":"260","name_en":"Sun Wai Tsuen","name_tc":"新圍村","lat":"22.24347600","long":"113.97732200","location_en":"South Lantau Road","location_tc":"嶼南道"},"261":{"stop":"261","name_en":"Lo Wai Tsuen","name_tc":"老圍村","lat":"22.24444000","long":"113.97900000","location_en":"South Lantau Road","location_tc":"嶼南道"},"262":{"stop":"262","name_en":"Pui O Petrol Station","name_tc":"貝澳油站","lat":"22.24750100","long":"113.98077000","location_en":"South Lantau Road","location_tc":"嶼南道"},"263":{"stop":"263","name_en":"Swire Staff Holiday House","name_tc":"太古職員宿舍","lat":"22.25212000","long":"113.98474500","location_en":"South Lantau Road","location_tc":"嶼南道"},"264":{"stop":"264","name_en":"Nam Shan Camp Site","name_tc":"南山營地","lat":"22.25606700","long":"113.98747000","location_en":"South Lantau Road","location_tc":"嶼南道"},"265":{"stop":"265","name_en":"Nam Shan Sam Uk Tsuen","name_tc":"南山三屋村","lat":"22.25732700","long":"113.98990100","location_en":"South Lantau Road","location_tc":"嶼南道"},"56":{"stop":"56","name_en":"Lai Chi Yuen Cemetery","name_tc":"禮智園墳場","lat":"22.25932700","long":"113.99399300","location_en":"South Lantau Road","location_tc":"嶼南道"},"266":{"stop":"266","name_en":"Lai Chi Yuen","name_tc":"荔枝園","lat":"22.26066700","long":"113.99626800","location_en":"South Lantau Road","location_tc":"嶼南道"},"57":{"stop":"57","name_en":"Mui Wo Police Station","name_tc":"梅窩警署","lat":"22.26409300","long":"113.99890600","location_en":"South Lantau Road","location_tc":"嶼南道"},"305":{"stop":"305","name_en":"Mui Wo Ferry Pier","name_tc":"梅窩碼頭","lat":"22.26466400","long":"114.00155400","location_en":"Mui Wo Ferry Pier","location_tc":"梅窩碼頭"},"127":{"stop":"127","name_en":"Hung Hom (Hung Luen Road)","name_tc":"紅磡 (紅鸞道)","lat":"22.30141600","long":"114.18809200","location_en":"Hung Hom Bay Hung Luen Road","location_tc":"紅磡灣紅鸞道"},"128":{"stop":"128","name_en":"East Tsim Sha Tsui MTR Station","name_tc":"尖東港鐵站","lat":"22.29479800","long":"114.17438000","location_en":"Salisbury Road","location_tc":"梳士巴利道"},"129":{"stop":"129","name_en":"Kowloon Park","name_tc":"九龍公園","lat":"22.29872100","long":"114.17192800","location_en":"Nathan Road","location_tc":"彌敦道"},"183":{"stop":"183","name_en":"Nelson Street","name_tc":"奶路臣街","lat":"22.31801800","long":"114.16951500","location_en":"Nathan Road","location_tc":"彌敦道"},"131":{"stop":"131","name_en":"Prince Edward MTR Station","name_tc":"太子港鐵站","lat":"22.32581600","long":"114.16787600","location_en":"Nathan Road","location_tc":"彌敦道"},"132":{"stop":"132","name_en":"Yen Chow Street","name_tc":"欽州街","lat":"22.33129900","long":"114.16136900","location_en":"Cheung Sha Wan Road","location_tc":"長沙灣道"},"184":{"stop":"184","name_en":"Yee Kok Court","name_tc":"怡閣苑","lat":"22.33389400","long":"114.15804300","location_en":"Cheung Sha Wan Road","location_tc":"長沙灣道"},"317":{"stop":"317","name_en":"Tung Chung Tat Tung Road Bus Terminus","name_tc":"東涌達東路巴士總站","lat":"22.29058000","long":"113.93935200","location_en":"Tat Tung Road","location_tc":"達東路"},"28":{"stop":"28","name_en":"Tong Fuk Village","name_tc":"塘福村","lat":"22.22756500","long":"113.93270600","location_en":"South Lantau Road","location_tc":"嶼南道"},"62":{"stop":"62","name_en":"Ngong Ping","name_tc":"昂坪","lat":"22.25561200","long":"113.90286200","location_en":"Po Ngong Road","location_tc":"寶昂路"},"181":{"stop":"181","name_en":"Tong Fuk","name_tc":"塘福","lat":"22.22761600","long":"113.93228900","location_en":"Tong Fuk","location_tc":"塘福"},"246":{"stop":"246","name_en":"Tong Fuk Beach","name_tc":"塘福海灘","lat":"22.22894100","long":"113.93594400","location_en":"South Lantau Road","location_tc":"嶼南道"},"247":{"stop":"247","name_en":"Upper Cheung Sha Beach","name_tc":"上長沙泳灘","lat":"22.23132900","long":"113.94176600","location_en":"South Lantau Road","location_tc":"嶼南道"},"248":{"stop":"248","name_en":"Cheung Sha Bridge","name_tc":"長沙大橋","lat":"22.23397900","long":"113.94736600","location_en":"South Lantau Road","location_tc":"嶼南道"},"249":{"stop":"249","name_en":"Butterfly Crest","name_tc":"蝶崗","lat":"22.23506200","long":"113.94929800","location_en":"South Lantau Road","location_tc":"嶼南道"},"250":{"stop":"250","name_en":"Leyburn Villas","name_tc":"麗濱別墅","lat":"22.23647200","long":"113.95142400","location_en":"South Lantau Road","location_tc":"嶼南道"},"251":{"stop":"251","name_en":"Cheung Sha Fire Station","name_tc":"長沙消防局","lat":"22.23680300","long":"113.95543400","location_en":"South Lantau Road","location_tc":"嶼南道"},"252":{"stop":"252","name_en":"Cheung Sha Ha Tsuen","name_tc":"長沙下村","lat":"22.23496500","long":"113.95717000","location_en":"South Lantau Road","location_tc":"嶼南道"},"253":{"stop":"253","name_en":"Cheung Sha Police Headquarters","name_tc":"長沙警署","lat":"22.23396400","long":"113.96017400","location_en":"South Lantau Road","location_tc":"嶼南道"},"254":{"stop":"254","name_en":"Cheung Sha Sheung Tsuen","name_tc":"長沙上村","lat":"22.23533000","long":"113.96154700","location_en":"South Lantau Road","location_tc":"嶼南道"},"255":{"stop":"255","name_en":"San Shek Wan Roundabout","name_tc":"散石灣迴旋處","lat":"22.23672700","long":"113.96242400","location_en":"South Lantau Road","location_tc":"嶼南道"},"40":{"stop":"40","name_en":"Sha Tsui Detention Centre","name_tc":"沙咀懲教所","lat":"22.22496900","long":"113.89348700","location_en":"Shek Pik Reservoir Road","location_tc":"石壁水塘道"},"236":{"stop":"236","name_en":"Shek Pik Police Station","name_tc":"石壁警崗","lat":"22.22611900","long":"113.89813400","location_en":"South Lantau Road","location_tc":"嶼南道"},"237":{"stop":"237","name_en":"Shui Hau Helicopter Landing Field","name_tc":"水口直升機場","lat":"22.22370300","long":"113.90832500","location_en":"South Lantau Road","location_tc":"嶼南道"},"238":{"stop":"238","name_en":"Four-Eye Ma","name_tc":"四眼馬","lat":"22.22205400","long":"113.91063200","location_en":"South Lantau Road","location_tc":"嶼南道"},"239":{"stop":"239","name_en":"Shui Hau Village","name_tc":"水口村","lat":"22.22110100","long":"113.91417300","location_en":"South Lantau Road","location_tc":"嶼南道"},"240":{"stop":"240","name_en":"Shui Hau Village (East)","name_tc":"水口村(東)","lat":"22.22184100","long":"113.91576300","location_en":"South Lantau Road","location_tc":"嶼南道"},"241":{"stop":"241","name_en":"Lower Wan Lung","name_tc":"下橫壟","lat":"22.22205000","long":"113.91923400","location_en":"South Lantau Road","location_tc":"嶼南道"},"242":{"stop":"242","name_en":"Upper Wan Lung","name_tc":"上橫壟","lat":"22.22435800","long":"113.92107700","location_en":"South Lantau Road","location_tc":"嶼南道"},"243":{"stop":"243","name_en":"South Lantau Sea Cable Station","name_tc":"南大嶼山海底電纜站","lat":"22.22588300","long":"113.92718000","location_en":"South Lantau Road","location_tc":"嶼南道"},"32":{"stop":"32","name_en":"Tong Fuk Correctional Institution","name_tc":"塘福懲教所","lat":"22.22876400","long":"113.92608400","location_en":"South Lantau Road","location_tc":"嶼南道"},"30":{"stop":"30","name_en":"Ma Po Ping Village","name_tc":"麻埔坪村","lat":"22.22992600","long":"113.92805000","location_en":"Ma Po Ping Road","location_tc":"麻埔坪道"},"244":{"stop":"244","name_en":"Ma Po Ping Road Junction","name_tc":"麻埔坪道口","lat":"22.22658300","long":"113.93007700","location_en":"South Lantau Road","location_tc":"嶼南道"},"245":{"stop":"245","name_en":"Tong Fuk Village","name_tc":"塘福村","lat":"22.22776300","long":"113.93239700","location_en":"South Lantau Road","location_tc":"嶼南道"},"83":{"stop":"83","name_en":"San Shek Wan Roundabout","name_tc":"散石灣迴旋處","lat":"22.23654400","long":"113.96255000","location_en":"South Lantau Road","location_tc":"嶼南道"},"19":{"stop":"19","name_en":"Cheung Sha Sheung Tsuen","name_tc":"長沙上村","lat":"22.23523800","long":"113.96173900","location_en":"South Lantau Road","location_tc":"嶼南道"},"20":{"stop":"20","name_en":"Cheung Sha Police Headquarters","name_tc":"長沙警署","lat":"22.23377200","long":"113.96021100","location_en":"South Lantau Road","location_tc":"嶼南道"},"21":{"stop":"21","name_en":"Cheung Sha Ha Tsuen","name_tc":"長沙下村","lat":"22.23478700","long":"113.95723200","location_en":"South Lantau Road","location_tc":"嶼南道"},"22":{"stop":"22","name_en":"Cheung Sha Fire Station","name_tc":"長沙消防局","lat":"22.23663200","long":"113.95434900","location_en":"South Lantau Road","location_tc":"嶼南道"},"23":{"stop":"23","name_en":"Leyburn Villas","name_tc":"麗濱別墅","lat":"22.23621700","long":"113.95191600","location_en":"South Lantau Road","location_tc":"嶼南道"},"24":{"stop":"24","name_en":"Butterfly Crest","name_tc":"蝶崗","lat":"22.23454000","long":"113.94884100","location_en":"South Lantau Road","location_tc":"嶼南道"},"25":{"stop":"25","name_en":"Cheung Sha Bridge","name_tc":"長沙大橋","lat":"22.23338900","long":"113.94697700","location_en":"South Lantau Road","location_tc":"嶼南道"},"26":{"stop":"26","name_en":"Upper Cheung Sha Beach","name_tc":"上長沙泳灘","lat":"22.23087700","long":"113.94152500","location_en":"South Lantau Road","location_tc":"嶼南道"},"27":{"stop":"27","name_en":"Tong Fuk Beach","name_tc":"塘福海灘","lat":"22.22850900","long":"113.93533900","location_en":"South Lantau Road","location_tc":"嶼南道"},"31":{"stop":"31","name_en":"Ma Po Ping Road Junction","name_tc":"麻埔坪道口","lat":"22.22601800","long":"113.92949500","location_en":"South Lantau Road","location_tc":"嶼南道"},"178":{"stop":"178","name_en":"South Lantau Sea Cable Station","name_tc":"南大嶼山海底電纜站","lat":"22.22527200","long":"113.92866100","location_en":"South Lantau Road","location_tc":"嶼南道"},"33":{"stop":"33","name_en":"Upper Wan Lung","name_tc":"上橫壟","lat":"22.22334800","long":"113.92062400","location_en":"South Lantau Road","location_tc":"嶼南道"},"34":{"stop":"34","name_en":"Lower Wan Lung","name_tc":"下橫壟","lat":"22.22230500","long":"113.91974100","location_en":"South Lantau Road","location_tc":"嶼南道"},"35":{"stop":"35","name_en":"Shui Hau Village (East)","name_tc":"水口村(東)","lat":"22.22156500","long":"113.91605900","location_en":"South Lantau Road","location_tc":"嶼南道"},"36":{"stop":"36","name_en":"Shui Hau Village","name_tc":"水口村","lat":"22.22098931","long":"113.91431800","location_en":"South Lantau Road","location_tc":"嶼南道"},"37":{"stop":"37","name_en":"Four-Eye Ma","name_tc":"四眼馬","lat":"22.22191300","long":"113.91037000","location_en":"South Lantau Road","location_tc":"嶼南道"},"38":{"stop":"38","name_en":"Shui Hau Helicopter Landing Field","name_tc":"水口直升機場","lat":"22.22353200","long":"113.90806300","location_en":"South Lantau Road","location_tc":"嶼南道"},"39":{"stop":"39","name_en":"Shek Pik Police Station","name_tc":"石壁警崗","lat":"22.22586200","long":"113.89772000","location_en":"South Lantau Road","location_tc":"嶼南道"},"41":{"stop":"41","name_en":"Sha Tsui","name_tc":"沙咀","lat":"22.22832800","long":"113.89060000","location_en":"Keung Shan Road","location_tc":"姜山道"},"42":{"stop":"42","name_en":"Shek Pik Au W.W.O. Access Road","name_tc":"石壁坳引水道通道","lat":"22.23945100","long":"113.89369700","location_en":"Keung Shan Road","location_tc":"姜山道"},"269":{"stop":"269","name_en":"Sham Wat Road Junction","name_tc":"深屈道口","lat":"22.24520700","long":"113.89208900","location_en":"Keung Shan Road","location_tc":"姜山道"},"59":{"stop":"59","name_en":"San Hoi Ting","name_tc":"山海亭","lat":"22.24947700","long":"113.89305300","location_en":"Sham Wat Road","location_tc":"深屈道"},"221":{"stop":"221","name_en":"Tai O","name_tc":"大澳","lat":"22.25278300","long":"113.86216000","location_en":"Tai O Road","location_tc":"大澳道"},"222":{"stop":"222","name_en":"Lung Tin Estate","name_tc":"龍田邨","lat":"22.25252100","long":"113.86500500","location_en":"Tai O Road","location_tc":"大澳道"},"224":{"stop":"224","name_en":"Hang Mei","name_tc":"坑尾","lat":"22.25083200","long":"113.86930600","location_en":"Tai O Road","location_tc":"大澳道"},"225":{"stop":"225","name_en":"Ling Yan Monastery","name_tc":"靈隱寺","lat":"22.24428700","long":"113.87510700","location_en":"Tai O Road","location_tc":"大澳道"},"226":{"stop":"226","name_en":"Sun Fung Tsuen","name_tc":"新鳳村","lat":"22.24390000","long":"113.87700600","location_en":"Tai O Road","location_tc":"大澳道"},"227":{"stop":"227","name_en":"Keung Shan Management Centre","name_tc":"羌山管理站","lat":"22.24218200","long":"113.87905100","location_en":"Tai O Road","location_tc":"大澳道"},"228":{"stop":"228","name_en":"Lung Chai","name_tc":"龍仔","lat":"22.24137000","long":"113.88139200","location_en":"Tai O Road","location_tc":"大澳道"},"229":{"stop":"229","name_en":"Shing Fai Orchard","name_tc":"成輝果園","lat":"22.24400100","long":"113.88399500","location_en":"Keung Shan Road","location_tc":"姜山道"},"230":{"stop":"230","name_en":"Sam Yuen Ching Shea","name_tc":"三緣精舍","lat":"22.24671100","long":"113.88596800","location_en":"Keung Shan Road","location_tc":"姜山道"},"232":{"stop":"232","name_en":"Fat Hwa Yuen","name_tc":"法華苑","lat":"22.24622100","long":"113.88887200","location_en":"Keung Shan Road","location_tc":"姜山道"},"233":{"stop":"233","name_en":"Sham Wat Road","name_tc":"深屈道","lat":"22.24459200","long":"113.89187900","location_en":"Sham Wat Road","location_tc":"深屈道"},"234":{"stop":"234","name_en":"Shek Pik Au W.W.O. Access Road","name_tc":"石壁坳引水道通道","lat":"22.23917900","long":"113.89397500","location_en":"Keung Shan Road","location_tc":"姜山道"},"235":{"stop":"235","name_en":"Sha Tsui","name_tc":"沙咀","lat":"22.22850300","long":"113.89110500","location_en":"Keung Shan Road","location_tc":"姜山道"},"58":{"stop":"58","name_en":"Sham Wat Road","name_tc":"深屈道","lat":"22.24505400","long":"113.89119300","location_en":"Sham Wat Road","location_tc":"深屈道"},"44":{"stop":"44","name_en":"Fat Hwa Yuen","name_tc":"法華苑","lat":"22.24612200","long":"113.88904200","location_en":"Keung Shan Road","location_tc":"姜山道"},"45":{"stop":"45","name_en":"Sam Yuen Ching Shea","name_tc":"三緣精舍","lat":"22.24643500","long":"113.88624200","location_en":"Keung Shan Road","location_tc":"姜山道"},"46":{"stop":"46","name_en":"Shing Fai Orchard","name_tc":"成輝果園","lat":"22.24382000","long":"113.88420900","location_en":"Keung Shan Road","location_tc":"姜山道"},"47":{"stop":"47","name_en":"Kwun Yam Monastery","name_tc":"觀音寺","lat":"22.24225600","long":"113.88299100","location_en":"Keung Shan Road","location_tc":"姜山道"},"48":{"stop":"48","name_en":"Lung Chai","name_tc":"龍仔","lat":"22.24081600","long":"113.88102200","location_en":"Tai O Road","location_tc":"大澳道"},"49":{"stop":"49","name_en":"Keung Shan Management Centre","name_tc":"羌山管理站","lat":"22.24203200","long":"113.87882300","location_en":"Tai O Road","location_tc":"大澳道"},"84":{"stop":"84","name_en":"Sun Fung Tsuen","name_tc":"新鳳村","lat":"22.24357100","long":"113.87697200","location_en":"Tai O Road","location_tc":"大澳道"},"51":{"stop":"51","name_en":"Ling Yan Monastery","name_tc":"靈隱寺","lat":"22.24401800","long":"113.87500900","location_en":"Tai O Road","location_tc":"大澳道"},"52":{"stop":"52","name_en":"Hang Mei","name_tc":"坑尾","lat":"22.25065600","long":"113.86906200","location_en":"Tai O Road","location_tc":"大澳道"},"53":{"stop":"53","name_en":"Buddhist Fat Ho Memorial College","name_tc":"佛教筏可紀念中學","lat":"22.25203300","long":"113.86698800","location_en":"Tai O Road","location_tc":"大澳道"},"54":{"stop":"54","name_en":"Lung Tin Estate","name_tc":"龍田邨","lat":"22.25232600","long":"113.86497600","location_en":"Tai O Road","location_tc":"大澳道"},"55":{"stop":"55","name_en":"Tai O","name_tc":"大澳","lat":"22.25278300","long":"113.86216000","location_en":"Tai O Road","location_tc":"大澳道"},"270":{"stop":"270","name_en":"Ngong Ping","name_tc":"昂坪","lat":"22.25561200","long":"113.90286200","location_en":"Po Ngong Road","location_tc":"寶昂路"},"271":{"stop":"271","name_en":"San Hoi Ting","name_tc":"山海亭","lat":"22.24931300","long":"113.89284000","location_en":"Sham Wat Road","location_tc":"深屈道"},"43":{"stop":"43","name_en":"Sham Wat Road Junction","name_tc":"深屈道口","lat":"22.24503800","long":"113.89223700","location_en":"Keung Shan Road","location_tc":"姜山道"},"343":{"stop":"343","name_en":"Cheung Yuet House, Cheung Tung Estate","name_tc":"翔東邨翔月樓","lat":"22.29796880","long":"113.95392066","location_en":"Cheung Tung Estate","location_tc":"翔東邨"},"342":{"stop":"342","name_en":"Wui Tung Street","name_tc":"匯東街","lat":"22.29933639","long":"113.95193348","location_en":"Wui Tung Street","location_tc":"匯東街"},"329":{"stop":"329","name_en":"Yu Nga Court","name_tc":"裕雅苑","lat":"22.29655000","long":"113.94846500","location_en":"Yi Tung Road","location_tc":"怡東路"},"330":{"stop":"330","name_en":"Yu Nga Shopping Mall","name_tc":"裕雅商場","lat":"22.29542600","long":"113.94672800","location_en":"Yi Tung Road","location_tc":"怡東路"},"321":{"stop":"321","name_en":"Tung Chung Cable Car Terminal","name_tc":"東涌纜車站","lat":"22.28885253","long":"113.93846231","location_en":"Tat Tung Road","location_tc":"達東路"},"331":{"stop":"331","name_en":"Yu Nga Court","name_tc":"裕雅苑","lat":"22.29655600","long":"113.94848200","location_en":"Yi Tung Road","location_tc":"怡東路"},"341":{"stop":"341","name_en":"Wui Tung Street","name_tc":"匯東街","lat":"22.29936492","long":"113.95191068","location_en":"Wui Tung Street","location_tc":"匯東街"},"344":{"stop":"344","name_en":"Cheung Yuet House, Cheung Tung Estate","name_tc":"翔東邨翔月樓","lat":"22.29787447","long":"113.95400206","location_en":"Cheung Tung Estate","location_tc":"翔東邨"},"100":{"stop":"100","name_en":"Citygate","name_tc":"東薈城","lat":"22.29013600","long":"113.94147400","location_en":"Tat Tung Road","location_tc":"達東路"},"295":{"stop":"295","name_en":"Pak Mong","name_tc":"白芒","lat":"22.29796400","long":"113.96758000","location_en":"Cheung Tung Road","location_tc":"翔東路"},"98":{"stop":"98","name_en":"Government Maintenance Depot","name_tc":"政府維修廠","lat":"22.30893500","long":"113.98945100","location_en":"Cheung Tung Road","location_tc":"翔東路"},"95":{"stop":"95","name_en":"Siu Ho Wan","name_tc":"小蠔灣","lat":"22.31551900","long":"113.99797500","location_en":"Shum Fung Road","location_tc":"深豐路"},"327":{"stop":"327","name_en":"Disneyland","name_tc":"迪士尼樂園","lat":"22.31635600","long":"114.04573200","location_en":"Fantasy Road","location_tc":"幻想道"},"60":{"stop":"60","name_en":"Ngong Ping Village","name_tc":"昂坪市集","lat":"22.25546100","long":"113.90398100","location_en":"Ngong Ping Road","location_tc":"昂坪道"},"297":{"stop":"297","name_en":"Ying Tung Estate","name_tc":"迎東邨","lat":"22.29710400","long":"113.95334200","location_en":"Ying Tung Estate","location_tc":"迎東邨"},"191":{"stop":"191","name_en":"The Visionary (South Bound)","name_tc":"昇薈(南行)","lat":"22.29583500","long":"113.95207700","location_en":"Ying Tung Road","location_tc":"迎東路"},"110":{"stop":"110","name_en":"Kin Tung Road","name_tc":"健東路","lat":"22.29322200","long":"113.94941000","location_en":"Kin Tung Road","location_tc":"健東路"},"298":{"stop":"298","name_en":"Caribbean Coast Phase 2","name_tc":"映灣園二期","lat":"22.29193200","long":"113.95049000","location_en":"Man Tung Road","location_tc":"文東路"},"111":{"stop":"111","name_en":"Yi Tung Road","name_tc":"怡東路","lat":"22.29094900","long":"113.94801200","location_en":"Man Tung Road","location_tc":"文東路"},"112":{"stop":"112","name_en":"E Wun Secondary School","name_tc":"怡文中學","lat":"22.29085000","long":"113.94461100","location_en":"Man Tung Road","location_tc":"文東路"},"299":{"stop":"299","name_en":"Seaview Crescent","name_tc":"海堤灣畔","lat":"22.29303900","long":"113.94317900","location_en":"Wai Tung Road","location_tc":"惠東路"},"310":{"stop":"310","name_en":"Mun Tung Estate","name_tc":"滿東邨","lat":"22.27892200","long":"113.93455600","location_en":"Yu Tung Road","location_tc":"裕東路"},"101":{"stop":"101","name_en":"Chung Yat Street","name_tc":"松逸街","lat":"22.27616400","long":"113.93182300","location_en":"Chung Yat Street","location_tc":"松逸街"},"102":{"stop":"102","name_en":"Chung Mun Road","name_tc":"松滿路","lat":"22.27720100","long":"113.93170000","location_en":"Chung Mun Road","location_tc":"松滿路"},"103":{"stop":"103","name_en":"Fuk Yat House, Yat Tung Estate","name_tc":"逸東邨福逸樓","lat":"22.27921600","long":"113.93465100","location_en":"Yu Tung Road","location_tc":"裕東路"},"104":{"stop":"104","name_en":"Yung Yat House, Yat Tung Estate","name_tc":"逸東邨雍逸樓","lat":"22.27959200","long":"113.93671200","location_en":"Yu Tung Road","location_tc":"裕東路"},"88":{"stop":"88","name_en":"Kui Yat House, Yat Tung Estate","name_tc":"逸東邨居逸樓","lat":"22.28236900","long":"113.93657600","location_en":"Yat Tung Street","location_tc":"逸東街"},"89":{"stop":"89","name_en":"Yat Tung Estate","name_tc":"逸東邨","lat":"22.28205300","long":"113.93586200","location_en":"Yat Tung Street","location_tc":"逸東街"},"289":{"stop":"289","name_en":"Yat Tung Estate","name_tc":"逸東邨","lat":"22.28205300","long":"113.93586200","location_en":"Yat Tung Street","location_tc":"逸東街"},"309":{"stop":"309","name_en":"Mun Tung Estate","name_tc":"滿東邨","lat":"22.27865300","long":"113.93320300","location_en":"Yu Tung Road","location_tc":"裕東路"},"107":{"stop":"107","name_en":"Seaview Crescent","name_tc":"海堤灣畔","lat":"22.29292500","long":"113.94347100","location_en":"Wai Tung Road","location_tc":"惠東路"},"108":{"stop":"108","name_en":"Coastal Skyline","name_tc":"藍天海岸","lat":"22.29094200","long":"113.94593100","location_en":"Man Tung Road","location_tc":"文東路"},"186":{"stop":"186","name_en":"Caribbean Coast Phase 3","name_tc":"映灣園三期","lat":"22.29142400","long":"113.94897500","location_en":"Man Tung Road","location_tc":"文東路"},"109":{"stop":"109","name_en":"Caribbean Coast Phase 2","name_tc":"映灣園二期","lat":"22.29188200","long":"113.95001000","location_en":"Man Tung Road","location_tc":"文東路"},"190":{"stop":"190","name_en":"The Visionary(North Bound)","name_tc":"昇薈(北行)","lat":"22.29582300","long":"113.95190700","location_en":"Ying Tung Road","location_tc":"迎東路"},"193":{"stop":"193","name_en":"Ying Tung Estate","name_tc":"迎東邨","lat":"22.29710400","long":"113.95334200","location_en":"Ying Tung Estate","location_tc":"迎東邨"},"90":{"stop":"90","name_en":"Yu Tai Court","name_tc":"裕泰苑","lat":"22.28056500","long":"113.94106400","location_en":"Tung Chung Road","location_tc":"東涌道"},"306":{"stop":"306","name_en":"Yung Yat House, Yat Tung Estate","name_tc":"逸東邨雍逸樓","lat":"22.27974400","long":"113.93699500","location_en":"Yu Tung Road","location_tc":"裕東路"},"91":{"stop":"91","name_en":"Chek Lap Kok New Village","name_tc":"赤立角新村","lat":"22.27770400","long":"113.94199600","location_en":"Wong Lung Hang Road","location_tc":"黃龍坑道"},"92":{"stop":"92","name_en":"Shek Mun Kap Village","name_tc":"石門甲村","lat":"22.26940400","long":"113.93199600","location_en":"Shek Mun Kap Road","location_tc":"石門甲道"},"291":{"stop":"291","name_en":"Shek Mun Kap","name_tc":"石門甲","lat":"22.26905700","long":"113.93118500","location_en":"Shek Mun Kap Road","location_tc":"石門甲道"},"315":{"stop":"315","name_en":"Caribbean Coast","name_tc":"映灣園","lat":"22.29322200","long":"113.94941000","location_en":"Caribbean Coast","location_tc":"映灣園"},"105":{"stop":"105","name_en":"Tung Chung MTR Station","name_tc":"東涌港鐵站","lat":"22.28961300","long":"113.94021000","location_en":"Tat Tung Road","location_tc":"達東路"},"339":{"stop":"339","name_en":"Sunny Bay Station","name_tc":"欣澳站","lat":"22.33277840","long":"114.02855728","location_en":"Sunny Bay Station","location_tc":"欣澳站"},"106":{"stop":"106","name_en":"Tung Chung Development Ferry Pier","name_tc":"東涌發展碼頭","lat":"22.29384600","long":"113.94044900","location_en":"Tung Chung Waterfront Road","location_tc":"東涌海濱路"},"188":{"stop":"188","name_en":"North Lantau Hospital(Main Block)","name_tc":"北大嶼山醫院(主座大樓)","lat":"22.28202800","long":"113.93926900","location_en":"North Lantau Hospital, outside Casualty Ward","location_tc":"北大嶼山醫院急症室外"},"320":{"stop":"320","name_en":"North Lantau Hospital (North Bound), Mei Yat House Yat Tung Estate","name_tc":"北大嶼山醫院(北行), 逸東邨美逸樓","lat":"22.28129500","long":"113.93882200","location_en":"Chung Yan Road","location_tc":"松仁路"},"322":{"stop":"322","name_en":"North Lantau Hospital (South Bound)","name_tc":"北大嶼山醫院(南行)","lat":"22.28186100","long":"113.93880300","location_en":"Chung Yan Road","location_tc":"松仁路"},"332":{"stop":"332","name_en":"Tung Chung Station Bus Terminus","name_tc":"東涌站巴士總站","lat":"22.28986200","long":"113.93961600","location_en":"Tat Tung Road","location_tc":"達東路"},"319":{"stop":"319","name_en":"Tung Chung Development Ferry Pier","name_tc":"東涌發展碼頭","lat":"22.29384600","long":"113.94044900","location_en":"Tung Chung Waterfront Road","location_tc":"東涌海濱路"},"194":{"stop":"194","name_en":"Caribbean Coast Phase 1","name_tc":"映灣園一期","lat":"22.29349500","long":"113.95181600","location_en":"Man Tung Road","location_tc":"文東路"},"93":{"stop":"93","name_en":"Shek Mun Kap","name_tc":"石門甲","lat":"22.26905700","long":"113.93118500","location_en":"Shek Mun Kap Road","location_tc":"石門甲道"},"292":{"stop":"292","name_en":"Shek Mun Kap Village","name_tc":"石門甲村","lat":"22.26957500","long":"113.93197800","location_en":"Shek Mun Kap Road","location_tc":"石門甲道"},"318":{"stop":"318","name_en":"Tung Chung Tat Tung Road Bus Terminus","name_tc":"東涌達東路巴士總站","lat":"22.29058000","long":"113.93935200","location_en":"Tat Tung Road","location_tc":"達東路"},"192":{"stop":"192","name_en":"Ying Hei Road","name_tc":"迎禧路","lat":"22.29431000","long":"113.94999600","location_en":"Ying Hei Road","location_tc":"迎禧路"},"340":{"stop":"340","name_en":"Tung Chung Community Liaison Centre","name_tc":"東涌社區聯絡中心","lat":"22.29381023","long":"113.94377257","location_en":"Tung Chung Waterfront Road","location_tc":"東涌海濱路"},"324":{"stop":"324","name_en":"Yu Nga Court","name_tc":"裕雅苑","lat":"22.29419400","long":"113.94725400","location_en":"Ying Hei Road","location_tc":"迎禧路"},"303":{"stop":"303","name_en":"Century Link","name_tc":"東環","lat":"22.29439800","long":"113.94907100","location_en":"Ying Hong Street No.6","location_tc":"迎康街6號"},"328":{"stop":"328","name_en":"Disneyland","name_tc":"迪士尼樂園","lat":"22.31635600","long":"114.04573200","location_en":"Fantasy Road","location_tc":"幻想道"},"293":{"stop":"293","name_en":"Siu Ho Wan","name_tc":"小蠔灣","lat":"22.31551900","long":"113.99797500","location_en":"Shum Fung Road","location_tc":"深豐路"},"96":{"stop":"96","name_en":"Siu Ho Wan Water Treatment Works","name_tc":"小蠔灣濾水廠","lat":"22.31359500","long":"113.99573400","location_en":"Cheung Tung Road","location_tc":"翔東路"},"97":{"stop":"97","name_en":"Discovery Bay Tunnel","name_tc":"愉景灣隧道","lat":"22.31002200","long":"113.99058400","location_en":"Cheung Tung Road","location_tc":"翔東路"},"294":{"stop":"294","name_en":"Government Maintenance Depot","name_tc":"政府維修廠","lat":"22.30928300","long":"113.98925400","location_en":"Cheung Tung Road","location_tc":"翔東路"},"99":{"stop":"99","name_en":"Pak Mong","name_tc":"白芒","lat":"22.29796400","long":"113.96758000","location_en":"Cheung Tung Road","location_tc":"翔東路"},"307":{"stop":"307","name_en":"HZMB Hong Kong Port","name_tc":"大橋香港口岸","lat":"22.31640000","long":"113.95085600","location_en":"HZMB Hong Kong Port (Arrival Level)","location_tc":"大橋香港口岸 (抵港層)"},"117":{"stop":"117","name_en":"Airport (Passenger Terminal Building)","name_tc":"機場(客運大樓)","lat":"22.31456900","long":"113.93661000","location_en":"Cheong Tat Road","location_tc":"暢達路"},"118":{"stop":"118","name_en":"Cheong Tat Road","name_tc":"暢達路","lat":"22.31623600","long":"113.93594800","location_en":"Cheong Tat Road","location_tc":"暢達路"},"120":{"stop":"120","name_en":"Regal Airport Hotel","name_tc":"富豪機場酒店","lat":"22.31943000","long":"113.93394200","location_en":"Cheong Tat Road","location_tc":"暢達路"},"335":{"stop":"335","name_en":"Skycity Transport Terminal","name_tc":"航天城交通總匯","lat":"22.31681100","long":"113.94162700","location_en":"航天城","location_tc":"航天城"},"308":{"stop":"308","name_en":"HZMB Hong Kong Port Passenger Clearance Building","name_tc":"大橋香港口岸旅檢大樓","lat":"22.31721100","long":"113.95053100","location_en":"HZMB Hong Kong Port","location_tc":"大橋香港口岸"},"313":{"stop":"313","name_en":"HZMB Hong Kong Port","name_tc":"大橋香港口岸","lat":"22.31640000","long":"113.95085600","location_en":"HZMB Hong Kong Port (Arrival Level)","location_tc":"大橋香港口岸 (抵港層)"},"152":{"stop":"152","name_en":"Shenzhen Bay Port","name_tc":"深圳灣口岸","lat":"22.49743300","long":"113.95050900","location_en":"Shenzhen Bay Port","location_tc":"深圳灣口岸"},"196":{"stop":"196","name_en":"Lam Tei LTR Station","name_tc":"藍地輕鐵站","lat":"22.41844400","long":"113.98214600","location_en":"Castle Peak Road","location_tc":"青山公路"},"153":{"stop":"153","name_en":"Tsing Chuen Wai","name_tc":"青磚圍","lat":"22.42245200","long":"113.98530500","location_en":"Castle Peak Road","location_tc":"青山公路"},"154":{"stop":"154","name_en":"Nai Wai LTR Station","name_tc":"泥圍輕鐵站","lat":"22.42364800","long":"113.98631300","location_en":"Castle Peak Road","location_tc":"青山公路"},"147":{"stop":"147","name_en":"Yick Yuen Tsuen","name_tc":"亦園村","lat":"22.42716800","long":"113.98972800","location_en":"Castle Peak Road","location_tc":"青山公路"},"146":{"stop":"146","name_en":"Chung Uk Tsuen LTR Station","name_tc":"鍾屋村輕鐵站","lat":"22.42967300","long":"113.99223500","location_en":"Castle Peak Road","location_tc":"青山公路"},"145":{"stop":"145","name_en":"Hung Shui Kiu LTR Station","name_tc":"洪水橋輕鐵站","lat":"22.43385800","long":"113.99775000","location_en":"Castle Peak Road","location_tc":"青山公路"},"144":{"stop":"144","name_en":"Tai Tao Tsuen","name_tc":"大道村","lat":"22.43645100","long":"114.00145900","location_en":"Castle Peak Road","location_tc":"青山公路"},"143":{"stop":"143","name_en":"Fui Sha Wai","name_tc":"灰沙圍","lat":"22.43851400","long":"114.00465400","location_en":"Castle Peak Road","location_tc":"青山公路"},"155":{"stop":"155","name_en":"Tong Fong Tsuen LRT Station","name_tc":"塘坊村輕鐵站","lat":"22.44021000","long":"114.00731200","location_en":"Castle Peak Road","location_tc":"青山公路"},"156":{"stop":"156","name_en":"Ping Shan LRT Station","name_tc":"屏山輕鐵站","lat":"22.44321600","long":"114.01293000","location_en":"Castle Peak Road","location_tc":"青山公路"},"157":{"stop":"157","name_en":"Villa By The Park","name_tc":"朗庭園","lat":"22.44425900","long":"114.01818900","location_en":"Castle Peak Road","location_tc":"青山公路"},"158":{"stop":"158","name_en":"Hi Lee Path","name_tc":"喜利徑","lat":"22.44465400","long":"114.02580200","location_en":"Castle Peak Road","location_tc":"青山公路"},"159":{"stop":"159","name_en":"Tung Lok Street","name_tc":"同樂街","lat":"22.44462900","long":"114.02822500","location_en":"Castle Peak Road","location_tc":"青山公路"},"160":{"stop":"160","name_en":"Kuk Ting Street","name_tc":"谷亭街","lat":"22.44457800","long":"114.03023000","location_en":"Castle Peak Road","location_tc":"青山公路"},"134":{"stop":"134","name_en":"Yuen Long MTR Station","name_tc":"元朗港鐵站","lat":"22.44615300","long":"114.03388800","location_en":"Long Yat Road","location_tc":"朗日路"},"203":{"stop":"203","name_en":"Tin Shui Wai (Tin Tsz Estate)","name_tc":"天水圍 (天慈邨)","lat":"22.45353600","long":"114.00711100","location_en":"Tin Hei Street","location_tc":"天喜街"},"163":{"stop":"163","name_en":"Harbour Plaza Resort City","name_tc":"嘉湖海逸酒店","lat":"22.45860500","long":"114.00326000","location_en":"Tin Yan Road","location_tc":"天恩路"},"164":{"stop":"164","name_en":"Tin Shui Wai Town Centre","name_tc":"天水圍市中心","lat":"22.45849800","long":"114.00199400","location_en":"Tin Yan Road","location_tc":"天恩路"},"165":{"stop":"165","name_en":"Chestwood Court, Kingswood Villas","name_tc":"嘉湖山莊翠湖居","lat":"22.45959500","long":"113.99998400","location_en":"Tin Wing Road","location_tc":"天榮路"},"205":{"stop":"205","name_en":"Tin Shui Estate","name_tc":"天瑞邨","lat":"22.45659700","long":"113.99943400","location_en":"Tin Shui Road","location_tc":"天瑞路"},"206":{"stop":"206","name_en":"Tin Shui Wai Park","name_tc":"天水圍公園","lat":"22.45455500","long":"114.00305500","location_en":"Tin Shui Road","location_tc":"天瑞路"},"168":{"stop":"168","name_en":"Yiu Shing House, Tin Yiu Estate","name_tc":"天耀邨耀盛樓","lat":"22.45222100","long":"114.00216500","location_en":"Tin Wu Road","location_tc":"天湖路"},"169":{"stop":"169","name_en":"Yiu Man House, Tin Yiu Estate","name_tc":"天耀邨耀民樓","lat":"22.44955000","long":"114.00317400","location_en":"Tin Yiu Road","location_tc":"天耀路"},"207":{"stop":"207","name_en":"Tin Shing Court","name_tc":"天盛苑","lat":"22.44669700","long":"114.00300000","location_en":"Ping Ha Road","location_tc":"屏廈路"},"114":{"stop":"114","name_en":"Aviation Fuel Tank Farm","name_tc":"飛機燃料庫","lat":"22.29358400","long":"113.93212900","location_en":"Scenic Road","location_tc":"觀景路"},"115":{"stop":"115","name_en":"Cathay City","name_tc":"國泰城","lat":"22.29754600","long":"113.93281400","location_en":"Scenic Road","location_tc":"觀景路"},"116":{"stop":"116","name_en":"Gate House No. 2","name_tc":"二號檢查閘","lat":"22.31053500","long":"113.93710700","location_en":"Cheong Lin Road","location_tc":"暢連路"},"274":{"stop":"274","name_en":"Cathay City","name_tc":"國泰城","lat":"22.29755500","long":"113.93336000","location_en":"Scenic Road","location_tc":"觀景路"},"277":{"stop":"277","name_en":"Aviation Fuel Tank Farm","name_tc":"飛機燃料庫","lat":"22.29307500","long":"113.93222900","location_en":"Scenic Road","location_tc":"觀景路"},"170":{"stop":"170","name_en":"Tin Shing Court","name_tc":"天盛苑","lat":"22.44698800","long":"114.00279400","location_en":"Ping Ha Road","location_tc":"屏廈路"},"176":{"stop":"176","name_en":"Tin Shui Wai (Tin Yiu Estate)","name_tc":"天水圍 (天耀邨)","lat":"22.45053000","long":"114.00302900","location_en":"Tin Yiu Road","location_tc":"天耀路"},"161":{"stop":"161","name_en":"Yuen Long MTR Station","name_tc":"元朗港鐵站","lat":"22.44618900","long":"114.03481600","location_en":"Castle Peak Road","location_tc":"青山公路"},"135":{"stop":"135","name_en":"Yau San Street","name_tc":"又新街","lat":"22.44430800","long":"114.03125200","location_en":"Castle Peak Road","location_tc":"青山公路"},"136":{"stop":"136","name_en":"Tai Tong Road","name_tc":"大棠路","lat":"22.44435500","long":"114.02825500","location_en":"Castle Peak Road","location_tc":"青山公路"},"137":{"stop":"137","name_en":"Yuen Long Police Station","name_tc":"元朗警署","lat":"22.44438300","long":"114.02408500","location_en":"Castle Peak Road","location_tc":"青山公路"},"138":{"stop":"138","name_en":"Shui Pin Tsuen","name_tc":"水邊村","lat":"22.44440700","long":"114.02078100","location_en":"Castle Peak Road","location_tc":"青山公路"},"139":{"stop":"139","name_en":"Yuen Long Park","name_tc":"元朗公園","lat":"22.44411700","long":"114.01901300","location_en":"Castle Peak Road","location_tc":"青山公路"},"140":{"stop":"140","name_en":"Long Bin","name_tc":"朗邊","lat":"22.44338600","long":"114.01479900","location_en":"Castle Peak Road","location_tc":"青山公路"},"141":{"stop":"141","name_en":"Ping Shan","name_tc":"屏山","lat":"22.44167400","long":"114.01037800","location_en":"Castle Peak Road","location_tc":"青山公路"},"142":{"stop":"142","name_en":"San Hei Tsuen","name_tc":"新起村","lat":"22.44001900","long":"114.00763600","location_en":"Castle Peak Road","location_tc":"青山公路"},"197":{"stop":"197","name_en":"Fui Sha Wai","name_tc":"灰沙圍","lat":"22.43866900","long":"114.00540400","location_en":"Castle Peak Road","location_tc":"青山公路"},"199":{"stop":"199","name_en":"Tai Tao Tsuen","name_tc":"大道村","lat":"22.43653300","long":"114.00211500","location_en":"Castle Peak Road","location_tc":"青山公路"},"302":{"stop":"302","name_en":"Uptown","name_tc":"尚城","lat":"22.43530000","long":"114.00031400","location_en":"Castle Peak Road","location_tc":"青山公路"},"200":{"stop":"200","name_en":"Hung Shui Kiu LTR Station","name_tc":"洪水橋輕鐵站","lat":"22.43351800","long":"113.99781500","location_en":"Castle Peak Road","location_tc":"青山公路"},"201":{"stop":"201","name_en":"Chung Uk Tsuen LTR Station","name_tc":"鍾屋村輕鐵站","lat":"22.42958700","long":"113.99258700","location_en":"Castle Peak Road","location_tc":"青山公路"},"195":{"stop":"195","name_en":"Yick Yuen Tsuen","name_tc":"亦園村","lat":"22.42739600","long":"113.99036600","location_en":"Castle Peak Road","location_tc":"青山公路"},"148":{"stop":"148","name_en":"Nai Wai","name_tc":"泥圍","lat":"22.42362300","long":"113.98679600","location_en":"Castle Peak Road","location_tc":"青山公路"},"149":{"stop":"149","name_en":"Fuk Hang Tsuen","name_tc":"福亨村","lat":"22.42236000","long":"113.98564000","location_en":"Castle Peak Road","location_tc":"青山公路"},"150":{"stop":"150","name_en":"Miu Fat Buddhist Monastery","name_tc":"妙法寺","lat":"22.42043900","long":"113.98387800","location_en":"Castle Peak Road","location_tc":"青山公路"},"151":{"stop":"151","name_en":"Lam Tei LTR Station","name_tc":"藍地輕鐵站","lat":"22.41832800","long":"113.98238500","location_en":"Castle Peak Road","location_tc":"青山公路"},"171":{"stop":"171","name_en":"Tin Shui Wai Police Station","name_tc":"天水圍警署","lat":"22.45017100","long":"114.00250400","location_en":"Tin Yiu Road","location_tc":"天耀路"},"172":{"stop":"172","name_en":"Sherwood Court, Kingswood Villas","name_tc":"嘉湖山莊賞湖居","lat":"22.45255000","long":"114.00216900","location_en":"Tin Wu Road","location_tc":"天湖路"},"167":{"stop":"167","name_en":"Tin Shui Wai Park","name_tc":"天水圍公園","lat":"22.45455700","long":"114.00254300","location_en":"Tin Shui Road","location_tc":"天瑞路"},"166":{"stop":"166","name_en":"Tin Shui Estate","name_tc":"天瑞邨","lat":"22.45699400","long":"113.99885700","location_en":"Tin Shui Road","location_tc":"天瑞路"},"173":{"stop":"173","name_en":"Tin Chung Court","name_tc":"天頌苑","lat":"22.45986400","long":"114.00007900","location_en":"Tin Wing Road","location_tc":"天榮路"},"174":{"stop":"174","name_en":"Lynwood Court, Kingswood Villas","name_tc":"嘉湖山莊麗湖居","lat":"22.45893400","long":"114.00359200","location_en":"Tin Shing Road","location_tc":"天城路"},"175":{"stop":"175","name_en":"Kenswood Court, Kingswood Villas","name_tc":"嘉湖山莊景湖居","lat":"22.45736400","long":"114.00579700","location_en":"Tin Shing Road","location_tc":"天城路"},"162":{"stop":"162","name_en":"Tin Shui Wai (Tin Tsz Estate)","name_tc":"天水圍 (天慈邨)","lat":"22.45353600","long":"114.00711100","location_en":"Tin Hei Street","location_tc":"天喜街"},"187":{"stop":"187","name_en":"Chun Wan Road South","name_tc":"駿運南路","lat":"22.29631900","long":"113.92846900","location_en":"Chun Wan Road South","location_tc":"駿運南路"},"126":{"stop":"126","name_en":"Airport Freight Forwarding Centre","name_tc":"機場空運中心","lat":"22.29500500","long":"113.92434000","location_en":"Chun Wan Road","location_tc":"駿運路"},"122":{"stop":"122","name_en":"Asia Airfreight Terminal","name_tc":"亞洲空運中心","lat":"22.29606500","long":"113.92080600","location_en":"Chun Ping Road","location_tc":"駿坪路"},"276":{"stop":"276","name_en":"Chek Lap Kok South Road","name_tc":"赤鱲角南路","lat":"22.29197000","long":"113.92875900","location_en":"Chek Lap Kok South Road","location_tc":"赤鱲角南路"},"316":{"stop":"316","name_en":"Tung Chung MTR Station","name_tc":"東涌港鐵站","lat":"22.28961300","long":"113.94021000","location_en":"Tat Tung Road","location_tc":"達東路"},"121":{"stop":"121","name_en":"Chek Lap Kok South Road","name_tc":"赤鱲角南路","lat":"22.29188300","long":"113.92825100","location_en":"Chek Lap Kok South Road","location_tc":"赤鱲角南路"},"124":{"stop":"124","name_en":"Airport Freight Forwarding Centre","name_tc":"機場空運中心","lat":"22.29501600","long":"113.92332900","location_en":"Chun Ping Road","location_tc":"駿坪路"},"125":{"stop":"125","name_en":"HACTL","name_tc":"香港空運貨站","lat":"22.29712400","long":"113.92978400","location_en":"Chun Wan Road","location_tc":"駿運路"},"334":{"stop":"334","name_en":"Sheraton Hong Kong Tung Chung Hotel","name_tc":"東涌世茂喜來登酒店","lat":"22.29547400","long":"113.94672800","location_en":"Yi Tung Road","location_tc":"怡東路"},"333":{"stop":"333","name_en":"Sheraton Hong Kong Tung Chung Hotel","name_tc":"東涌世茂喜來登酒店","lat":"22.29542800","long":"113.94673200","location_en":"Yi Tung Road","location_tc":"怡東路"}}